{"epoch":1784762836,"count":18316,"objects":[{"id":"43056","name":"GALILEO 20 (2C6)","type":"PAYLOAD","l1":"1 43056U 17079B   26201.15518388  .00000057  00000-0  00000-0 0  9994","l2":"2 43056  55.0668 220.5989 0004935 278.3287  81.6543  1.70474538 53568"},{"id":"43057","name":"GALILEO 21 (2C7)","type":"PAYLOAD","l1":"1 43057U 17079C   26201.96257603  .00000062  00000-0  00000-0 0  9990","l2":"2 43057  55.0652 220.5745 0004260 292.9460  67.0499  1.70474474 53565"},{"id":"43058","name":"GALILEO 22 (2C8)","type":"PAYLOAD","l1":"1 43058U 17079D   26202.18265508  .00000064  00000-0  00000-0 0  9991","l2":"2 43058  55.0651 220.5659 0005416 275.2147  84.7650  1.70474478 53591"},{"id":"43107","name":"BEIDOU 3M3","type":"PAYLOAD","l1":"1 43107U 18003A   26202.17906478 -.00000101  00000-0  00000-0 0  9994","l2":"2 43107  54.2951 301.1285 0004255 100.7931 259.2886  1.86228037 57986"},{"id":"43108","name":"BEIDOU 3M4","type":"PAYLOAD","l1":"1 43108U 18003B   26202.66025765 -.00000101  00000-0  00000-0 0  9990","l2":"2 43108  54.2876 301.0931 0003132 256.3194 103.6796  1.86230921 58003"},{"id":"43207","name":"BEIDOU 3M5","type":"PAYLOAD","l1":"1 43207U 18018A   26202.02956916 -.00000080  00000-0  00000-0 0  9993","l2":"2 43207  56.6812  62.0321 0007145  31.4150 328.6897  1.86231251 57375"},{"id":"43208","name":"BEIDOU 3M6","type":"PAYLOAD","l1":"1 43208U 18018B   26202.63302743 -.00000079  00000-0  00000-0 0  9992","l2":"2 43208  56.6811  62.0163 0007201 348.0427  12.0023  1.86231119 57385"},{"id":"43245","name":"BEIDOU 3M7","type":"PAYLOAD","l1":"1 43245U 18029A   26201.77715794 -.00000098  00000-0  00000-0 0  9994","l2":"2 43245  54.1608 298.7724 0001216 191.8898 168.1446  1.86228484 56528"},{"id":"43246","name":"BEIDOU 3M8","type":"PAYLOAD","l1":"1 43246U 18029B   26202.78525843 -.00000097  00000-0  00000-0 0  9990","l2":"2 43246  54.1581 298.7638 0003156  36.7778 323.2807  1.86229141 56528"},{"id":"43286","name":"IRNSS 1I","type":"PAYLOAD","l1":"1 43286U 18035A   26202.89458949  .00000062  00000-0  00000-0 0  9996","l2":"2 43286  28.8336  73.6540 0018405 179.0574  64.0489  1.00274701 30423"},{"id":"43508","name":"COSMOS 2527 (GLONASS)","type":"PAYLOAD","l1":"1 43508U 18053A   26201.40231311 -.00000049  00000-0  00000-0 0  9997","l2":"2 43508  65.5961  72.7996 0006344 227.3843 132.6293  2.13101992 62989"},{"id":"43539","name":"BEIDOU IGSO-7","type":"PAYLOAD","l1":"1 43539U 18057A   26197.82826650 -.00000084  00000-0  00000-0 0  9990","l2":"2 43539  55.1987 162.7987 0104915 237.9691 299.1450  1.00242392 29428"},{"id":"43564","name":"GALILEO 25 (2C1)","type":"PAYLOAD","l1":"1 43564U 18060A   26198.56730463 -.00000104  00000-0  00000-0 0  9993","l2":"2 43564  57.1585 340.9609 0002701 283.6812  76.2771  1.70476136 49688"},{"id":"43565","name":"GALILEO 26 (2C2)","type":"PAYLOAD","l1":"1 43565U 18060B   26202.89310238 -.00000107  00000-0  00000-0 0  9993","l2":"2 43565  57.1601 340.8479 0003036 234.2214 125.7449  1.70476084 49800"},{"id":"43566","name":"GALILEO 23 (2C9)","type":"PAYLOAD","l1":"1 43566U 18060C   26203.11394765 -.00000107  00000-0  00000-0 0  9997","l2":"2 43566  57.1594 340.8434 0001902 291.7080  68.2662  1.70476312 49781"},{"id":"43567","name":"GALILEO 24 (2C0)","type":"PAYLOAD","l1":"1 43567U 18060D   26200.98863111 -.00000107  00000-0  00000-0 0  9996","l2":"2 43567  57.1597 340.9001 0002111 284.4251  75.5444  1.70476103 49730"},{"id":"43581","name":"BEIDOU 3M9","type":"PAYLOAD","l1":"1 43581U 18062A   26202.47219311  .00000078  00000-0  00000-0 0  9993","l2":"2 43581  54.0866 181.1382 0005611 294.6649  65.2579  1.86228813 54270"},{"id":"43582","name":"BEIDOU 3M10","type":"PAYLOAD","l1":"1 43582U 18062B   26203.40973527  .00000076  00000-0  00000-0 0  9992","l2":"2 43582  54.0863 181.0957 0005389  11.3215 348.6730  1.86228094 54290"},{"id":"43602","name":"BEIDOU 3M11","type":"PAYLOAD","l1":"1 43602U 18067A   26203.34818810  .00000075  00000-0  00000-0 0  9995","l2":"2 43602  54.1814 179.8480 0008043  30.1591 329.8681  1.86227636 53771"},{"id":"43603","name":"BEIDOU 3M12","type":"PAYLOAD","l1":"1 43603U 18067B   26203.48334856  .00000074  00000-0  00000-0 0  9993","l2":"2 43603  54.1790 179.8069 0004712  13.8636 346.1302  1.86227144 53805"},{"id":"43622","name":"BEIDOU 3M13","type":"PAYLOAD","l1":"1 43622U 18072A   26201.82711213 -.00000080  00000-0  00000-0 0  9990","l2":"2 43622  56.6540  61.5496 0005671 334.9185  25.1158  1.86231285 53284"},{"id":"43623","name":"BEIDOU 3M14","type":"PAYLOAD","l1":"1 43623U 18072B   26202.22949836 -.00000080  00000-0  00000-0 0  9990","l2":"2 43623  56.6565  61.5310 0005432  13.4516 346.6246  1.86231111 53286"},{"id":"43647","name":"BEIDOU 3M15","type":"PAYLOAD","l1":"1 43647U 18078A   26201.84740124 -.00000098  00000-0  00000-0 0  9997","l2":"2 43647  54.0571 298.8050 0006517  39.3061 320.7783  1.86232384 52780"},{"id":"43648","name":"BEIDOU 3M16","type":"PAYLOAD","l1":"1 43648U 18078B   26201.97666235 -.00000098  00000-0  00000-0 0  9992","l2":"2 43648  54.0528 298.8006 0003388  57.1042 302.9655  1.86232487 52801"},{"id":"43683","name":"BEIDOU 3G1","type":"PAYLOAD","l1":"1 43683U 18085A   26203.58204098 -.00000107  00000-0  00000-0 0  9994","l2":"2 43683   2.9560  96.4144 0008313 357.3143 216.1265  1.00272967 28419"},{"id":"43687","name":"COSMOS 2529 (GLONASS)","type":"PAYLOAD","l1":"1 43687U 18086A   26201.49849141  .00000085  00000-0  00000-0 0  9995","l2":"2 43687  64.2975 191.4696 0011977 256.3144 103.5547  2.13101999 59991"},{"id":"43706","name":"BEIDOU 3M17","type":"PAYLOAD","l1":"1 43706U 18093A   26203.11628203  .00000078  00000-0  00000-0 0  9992","l2":"2 43706  54.1702 181.1114 0010000 295.2679   0.0935  1.86228496 52188"},{"id":"43707","name":"BEIDOU 3M18","type":"PAYLOAD","l1":"1 43707U 18093B   26202.00234979  .00000078  00000-0  00000-0 0  9993","l2":"2 43707  54.1710 181.1414 0008118 324.4293  35.4967  1.86226686 52169"},{"id":"43873","name":"NAVSTAR 77 (USA 289)","type":"PAYLOAD","l1":"1 43873U 18109A   26202.72731404 -.00000063  00000-0  00000-0 0  9994","l2":"2 43873  55.7026  90.8235 0038804 197.0340  26.2979  2.00563321 55766"},{"id":"44204","name":"BEIDOU 3 IGSO-1","type":"PAYLOAD","l1":"1 44204U 19023A   26203.44280863 -.00000208  00000-0  00000+0 0  9997","l2":"2 44204  58.7457  37.2857 0026194 223.4912 318.1363  1.00281841  7567"},{"id":"44231","name":"BEIDOU 2 G8","type":"PAYLOAD","l1":"1 44231U 19027A   26203.64289757 -.00000245  00000-0  00000-0 0  9996","l2":"2 44231   1.7460  74.5118 0009580 284.0006 317.8242  1.00270180 26433"}]}